COSMOS 2058             
1 20465U 90010A   26159.86297447  .00003345  00000+0  19325-3 0  9994
2 20465  82.4663 317.5651 0010290  28.8430 331.3367 15.11957190956019
SL-14 R/B               
1 20466U 90010B   26160.07469436  .00000325  00000+0  36393-4 0  9999
2 20466  82.5016 181.5637 0019805   3.4032 356.7314 14.83641000942032
SL-14 R/B               
1 20511U 90018B   26160.18042226  .00000356  00000+0  41629-4 0  9996
2 20511  82.5204 137.5914 0016942 146.4288 213.8004 14.82210847936134
HST                     
1 20580U 90037B   26160.25429042  .00004810  00000+0  15014-3 0  9993
2 20580  28.4711 134.7882 0001992  63.4353 296.6447 15.30659901787355
SL-16 R/B               
1 20625U 90046B   26160.24282011  .00000307  00000+0  18279-3 0  9998
2 20625  70.9985 105.6321 0014001 173.6796 186.4506 14.15022087861340
COSMOS 2084             
1 20663U 90055A   26159.89493667  .00002030  00000+0  15200-3 0  9996
2 20663  62.7911  24.3931 0005511 263.5695  96.4778 15.06082531950056
SL-6 R/B(2)             
1 20666U 90055D   26160.13727215  .00001573  00000+0  12624-3 0  9995
2 20666  62.7838 302.7687 0039387   4.0539 356.0871 15.03976623951940
SL-8 R/B                
1 20775U 90078B   26160.28231843  .00015640  00000+0  44002-3 0  9999
2 20775  82.9013 168.7848 0352664  65.0696 298.6733 14.92012384822943
SL-8 R/B                
1 21088U 91006B   26160.30132225  .00000046  00000+0  30329-4 0  9998
2 21088  82.9421 101.8999 0023344 135.5995 335.4443 13.77505346776688
OKEAN-3                 
1 21397U 91039A   26160.29476404  .00001660  00000+0  11393-3 0  9997
2 21397  82.5161 248.0344 0014566  25.9061 334.2892 15.05290480878814
COSMOS 2151             
1 21422U 91042A   26160.25705578  .00001227  00000+0  95315-4 0  9999
2 21422  82.4961 355.3348 0013759 107.7426 252.5301 15.00415157876925
SL-14 R/B               
1 21423U 91042B   26160.18527580  .00000361  00000+0  42621-4 0  9997
2 21423  82.4922 134.3996 0015669 303.6846  56.2873 14.81897338866624
ERS-1                   
1 21574U 91050A   26160.31045507  .00000238  00000+0  90805-4 0  9992
2 21574  98.7799 180.8159 0030767 291.2848  68.5055 14.39512125828919
ARIANE 40 R/B           
1 21610U 91050F   26160.07460550  .00000242  00000+0  84827-4 0  9997
2 21610  98.1878 208.8072 0003900 139.0993 221.0491 14.42952238832176
INTERCOSMOS 25          
1 21819U 91086A   26160.27101434  .00000466  00000+0  92942-4 0  9997
2 21819  82.6054 254.5997 1484301 279.4868  64.2017 12.12186573507787
SL-8 R/B                
1 21876U 92008B   26160.20040397  .00000085  00000+0  71917-4 0  9994
2 21876  82.9266 199.7258 0033425 237.6920 186.8044 13.75974721722004
SL-8 R/B                
1 21938U 92020B   26160.28088162  .00000048  00000+0  33508-4 0  9990
2 21938  82.9305  85.7296 0030166  44.0144  66.2142 13.75548098713723
USA 81                  
1 21949U 92023A   26160.24137556  .00000150  00000+0  48256-4 0  9993
2 21949  85.0077  78.5931 0002753  91.7177 268.4331 14.32396046107896
COSMOS 2219             
1 22219U 92076A   26160.26799878  .00000016  00000+0  33088-4 0  9993
2 22219  71.0575 186.6274 0016216  57.0848 303.1832 14.14095667731324
SL-16 R/B               
1 22220U 92076B   26160.28675916 -.00000207  00000+0 -79167-4 0  9995
2 22220  71.0006 355.4249 0014503 308.9703 228.2523 14.16871712734803
COSMOS 2221             
1 22236U 92080A   26160.11541112  .00001216  00000+0  10462-3 0  9990
2 22236  82.5033 191.4981 0012710 241.9025 118.0913 14.96512465794461
SL-16 R/B               
1 22285U 92093B   26160.32746646 -.00000160  00000+0 -57735-4 0  9994
2 22285  71.0201 171.8914 0004389 199.9793 160.1159 14.15464555726125
COSMOS 2228             
1 22286U 92094A   26160.20335521  .00001871  00000+0  15763-3 0  9991
2 22286  82.5169 149.6902 0017717 359.8672   0.2543 14.97557266789759
SL-16 R/B               
1 22566U 93016B   26160.09467884  .00000140  00000+0  96147-4 0  9996
2 22566  71.0080  23.2050 0010727 195.2391 164.8410 14.15309184715102
COSMOS 2242             
1 22626U 93024A   26160.29286386  .00001437  00000+0  12271-3 0  9995
2 22626  82.5179 179.0956 0016143   3.4076 356.7253 14.96879540794097
SL-16 R/B               
1 22803U 93059B   26160.30259258  .00000260  00000+0  15226-3 0  9996
2 22803  70.9883 177.9313 0015019  67.7846 292.4869 14.17244969692517
ARIANE 40 R/B           
1 22830U 93061H   26160.10532169  .00000161  00000+0  74664-4 0  9994
2 22830  98.4819 227.1301 0010978  20.2194 339.9423 14.32904458707192
COSMOS 2278             
1 23087U 94023A   26160.25524330  .00000357  00000+0  21095-3 0  9991
2 23087  71.0543 343.5215 0010592 252.2458 107.7509 14.14393670657757
SL-16 R/B               
1 23088U 94023B   26159.97776867  .00000211  00000+0  13360-3 0  9998
2 23088  70.9995 239.1716 0003292 195.1257 164.9767 14.15019827659005
SL-16 R/B               
1 23343U 94074B   26160.10025469  .00000354  00000+0  53980-4 0  9991
2 23343  97.6994 187.1578 0005144 287.6505 139.4719 14.79495278700765
