OBJECT_NAME,OBJECT_ID,EPOCH,MEAN_MOTION,ECCENTRICITY,INCLINATION,RA_OF_ASC_NODE,ARG_OF_PERICENTER,MEAN_ANOMALY,EPHEMERIS_TYPE,CLASSIFICATION_TYPE,NORAD_CAT_ID,ELEMENT_SET_NO,REV_AT_EPOCH,BSTAR,MEAN_MOTION_DOT,MEAN_MOTION_DDOT
COSMOS 2058,1990-010A,2026-06-08T20:42:40.994208,15.11957190,.00102908,82.4663,317.5651,28.8430,331.3367,0,U,20465,999,95601,.1932537E-3,.3345E-4,0
SL-14 R/B,1990-010B,2026-06-09T01:47:33.592704,14.83641000,.00198057,82.5016,181.5637,3.4032,356.7314,0,U,20466,999,94203,.36393083E-4,.325E-5,0
SL-14 R/B,1990-018B,2026-06-09T04:19:48.483264,14.82210847,.00169424,82.5204,137.5914,146.4288,213.8004,0,U,20511,999,93613,.41628504E-4,.356E-5,0
HST,1990-037B,2026-06-09T06:06:10.692288,15.30659901,.00019924,28.4711,134.7882,63.4353,296.6447,0,U,20580,999,78735,.15013521E-3,.481E-4,0
SL-16 R/B,1990-046B,2026-06-09T05:49:39.657504,14.15022087,.00140015,70.9985,105.6321,173.6796,186.4506,0,U,20625,999,86134,.18279468E-3,.307E-5,0
COSMOS 2084,1990-055A,2026-06-08T21:28:42.528288,15.06082531,.00055118,62.7911,24.3931,263.5695,96.4778,0,U,20663,999,95005,.15200016E-3,.203E-4,0
SL-6 R/B(2),1990-055D,2026-06-09T03:17:40.313760,15.03976623,.00393871,62.7838,302.7687,4.0539,356.0871,0,U,20666,999,95194,.12624153E-3,.1573E-4,0
SL-8 R/B,1990-078B,2026-06-09T06:46:32.312352,14.92012384,.03526646,82.9013,168.7848,65.0696,298.6733,0,U,20775,999,82294,.44002481E-3,.1564E-3,0
SL-8 R/B,1991-006B,2026-06-09T07:13:54.242400,13.77505346,.00233448,82.9421,101.8999,135.5995,335.4443,0,U,21088,999,77668,.30328581E-4,.46E-6,0
OKEAN-3,1991-039A,2026-06-09T07:04:27.613056,15.05290480,.00145664,82.5161,248.0344,25.9061,334.2892,0,U,21397,999,87881,.11392778E-3,.166E-4,0
COSMOS 2151,1991-042A,2026-06-09T06:10:09.619392,15.00415157,.00137591,82.4961,355.3348,107.7426,252.5301,0,U,21422,999,87692,.95314993E-4,.1227E-4,0
SL-14 R/B,1991-042B,2026-06-09T04:26:47.829120,14.81897338,.00156699,82.4922,134.3996,303.6846,56.2873,0,U,21423,999,86662,.42621356E-4,.361E-5,0
ERS-1,1991-050A,2026-06-09T07:27:03.318048,14.39512125,.00307675,98.7799,180.8159,291.2848,68.5055,0,U,21574,999,82891,.90805335E-4,.238E-5,0
ARIANE 40 R/B,1991-050F,2026-06-09T01:47:25.915200,14.42952238,.00039,98.1878,208.8072,139.0993,221.0491,0,U,21610,999,83217,.84827066E-4,.242E-5,0
INTERCOSMOS 25,1991-086A,2026-06-09T06:30:15.638976,12.12186573,.14843016,82.6054,254.5997,279.4868,64.2017,0,U,21819,999,50778,.92942358E-4,.466E-5,0
SL-8 R/B,1992-008B,2026-06-09T04:48:34.903008,13.75974721,.00334255,82.9266,199.7258,237.6920,186.8044,0,U,21876,999,72200,.71916544E-4,.85E-6,0
SL-8 R/B,1992-020B,2026-06-09T06:44:28.171968,13.75548098,.00301666,82.9305,85.7296,44.0144,66.2142,0,U,21938,999,71372,.33507745E-4,.48E-6,0
USA 81,1992-023A,2026-06-09T05:47:34.848384,14.32396046,.00027537,85.0077,78.5931,91.7177,268.4331,0,U,21949,999,10789,.48255791E-4,.15E-5,0
COSMOS 2219,1992-076A,2026-06-09T06:25:55.094592,14.14095667,.00162164,71.0575,186.6274,57.0848,303.1832,0,U,22219,999,73132,.33087756E-4,.16E-6,0
SL-16 R/B,1992-076B,2026-06-09T06:52:55.991424,14.16871712,.00145037,71.0006,355.4249,308.9703,228.2523,0,U,22220,999,73480,-.7916715E-4,-.207E-5,0
COSMOS 2221,1992-080A,2026-06-09T02:46:11.520768,14.96512465,.00127106,82.5033,191.4981,241.9025,118.0913,0,U,22236,999,79446,.10462128E-3,.1216E-4,0
SL-16 R/B,1992-093B,2026-06-09T07:51:33.102144,14.15464555,.00043891,71.0201,171.8914,199.9793,160.1159,0,U,22285,999,72612,-.57734714E-4,-.16E-5,0
COSMOS 2228,1992-094A,2026-06-09T04:52:49.890144,14.97557266,.00177178,82.5169,149.6902,359.8672,0.2543,0,U,22286,999,78975,.15762928E-3,.1871E-4,0
SL-16 R/B,1993-016B,2026-06-09T02:16:20.251776,14.15309184,.00107274,71.0080,23.2050,195.2391,164.8410,0,U,22566,999,71510,.96146847E-4,.14E-5,0
COSMOS 2242,1993-024A,2026-06-09T07:01:43.437504,14.96879540,.00161431,82.5179,179.0956,3.4076,356.7253,0,U,22626,999,79409,.12270529E-3,.1437E-4,0
SL-16 R/B,1993-059B,2026-06-09T07:15:43.998912,14.17244969,.0015019,70.9883,177.9313,67.7846,292.4869,0,U,22803,999,69251,.15225741E-3,.26E-5,0
ARIANE 40 R/B,1993-061H,2026-06-09T02:31:39.794016,14.32904458,.00109783,98.4819,227.1301,20.2194,339.9423,0,U,22830,999,70719,.7466374E-4,.161E-5,0
COSMOS 2278,1994-023A,2026-06-09T06:07:33.021120,14.14393670,.0010592,71.0543,343.5215,252.2458,107.7509,0,U,23087,999,65775,.21095419E-3,.357E-5,0
SL-16 R/B,1994-023B,2026-06-08T23:27:59.213088,14.15019827,.00032927,70.9995,239.1716,195.1257,164.9767,0,U,23088,999,65900,.13360151E-3,.211E-5,0
SL-16 R/B,1994-074B,2026-06-09T02:24:22.005216,14.79495278,.00051444,97.6994,187.1578,287.6505,139.4719,0,U,23343,999,70076,.53979859E-4,.354E-5,0
